<?xml version="1.0" encoding="UTF-8"?>
<ndm xmlns:xsi="http://www.w3.org/2001/XMLSchema-instance" xsi:noNamespaceSchemaLocation="https://sanaregistry.org/r/ndmxml_unqualified/ndmxml-2.0.0-master-2.0.xsd">
<omm id="CCSDS_OMM_VERS" version="2.0">
<header><CREATION_DATE/><ORIGINATOR/></header><body><segment><metadata><OBJECT_NAME>ONEWEB-0119</OBJECT_NAME><OBJECT_ID>2020-100H</OBJECT_ID><CENTER_NAME>EARTH</CENTER_NAME><REF_FRAME>TEME</REF_FRAME><TIME_SYSTEM>UTC</TIME_SYSTEM><MEAN_ELEMENT_THEORY>SGP4</MEAN_ELEMENT_THEORY></metadata><data><meanElements><EPOCH>2023-09-23T08:06:54.979776</EPOCH><MEAN_MOTION>13.12440541</MEAN_MOTION><ECCENTRICITY>.0002025</ECCENTRICITY><INCLINATION>87.9071</INCLINATION><RA_OF_ASC_NODE>189.0524</RA_OF_ASC_NODE><ARG_OF_PERICENTER>73.6047</ARG_OF_PERICENTER><MEAN_ANOMALY>286.5304</MEAN_ANOMALY></meanElements><tleParameters><EPHEMERIS_TYPE>0</EPHEMERIS_TYPE><CLASSIFICATION_TYPE>U</CLASSIFICATION_TYPE><NORAD_CAT_ID>47265</NORAD_CAT_ID><ELEMENT_SET_NO>999</ELEMENT_SET_NO><REV_AT_EPOCH>13381</REV_AT_EPOCH><BSTAR>-.112E-3</BSTAR><MEAN_MOTION_DOT>-.28E-6</MEAN_MOTION_DOT><MEAN_MOTION_DDOT>0</MEAN_MOTION_DDOT></tleParameters></data></segment></body></omm>
<omm id="CCSDS_OMM_VERS" version="2.0">
<header><CREATION_DATE/><ORIGINATOR/></header><body><segment><metadata><OBJECT_NAME>ONEWEB-0120</OBJECT_NAME><OBJECT_ID>2020-100J</OBJECT_ID><CENTER_NAME>EARTH</CENTER_NAME><REF_FRAME>TEME</REF_FRAME><TIME_SYSTEM>UTC</TIME_SYSTEM><MEAN_ELEMENT_THEORY>SGP4</MEAN_ELEMENT_THEORY></metadata><data><meanElements><EPOCH>2023-09-23T07:01:22.075104</EPOCH><MEAN_MOTION>13.12441817</MEAN_MOTION><ECCENTRICITY>.0001735</ECCENTRICITY><INCLINATION>87.9071</INCLINATION><RA_OF_ASC_NODE>189.0506</RA_OF_ASC_NODE><ARG_OF_PERICENTER>69.6274</ARG_OF_PERICENTER><MEAN_ANOMALY>290.5040</MEAN_ANOMALY></meanElements><tleParameters><EPHEMERIS_TYPE>0</EPHEMERIS_TYPE><CLASSIFICATION_TYPE>U</CLASSIFICATION_TYPE><NORAD_CAT_ID>47266</NORAD_CAT_ID><ELEMENT_SET_NO>999</ELEMENT_SET_NO><REV_AT_EPOCH>13383</REV_AT_EPOCH><BSTAR>-.23296E-3</BSTAR><MEAN_MOTION_DOT>-.71E-6</MEAN_MOTION_DOT><MEAN_MOTION_DDOT>0</MEAN_MOTION_DDOT></tleParameters></data></segment></body></omm>
<omm id="CCSDS_OMM_VERS" version="2.0">
<header><CREATION_DATE/><ORIGINATOR/></header><body><segment><metadata><OBJECT_NAME>ONEWEB-0121</OBJECT_NAME><OBJECT_ID>2020-100K</OBJECT_ID><CENTER_NAME>EARTH</CENTER_NAME><REF_FRAME>TEME</REF_FRAME><TIME_SYSTEM>UTC</TIME_SYSTEM><MEAN_ELEMENT_THEORY>SGP4</MEAN_ELEMENT_THEORY></metadata><data><meanElements><EPOCH>2023-09-23T08:25:13.369152</EPOCH><MEAN_MOTION>13.12443918</MEAN_MOTION><ECCENTRICITY>.0002111</ECCENTRICITY><INCLINATION>87.9070</INCLINATION><RA_OF_ASC_NODE>189.0398</RA_OF_ASC_NODE><ARG_OF_PERICENTER>76.7429</ARG_OF_PERICENTER><MEAN_ANOMALY>283.3935</MEAN_ANOMALY></meanElements><tleParameters><EPHEMERIS_TYPE>0</EPHEMERIS_TYPE><CLASSIFICATION_TYPE>U</CLASSIFICATION_TYPE><NORAD_CAT_ID>47267</NORAD_CAT_ID><ELEMENT_SET_NO>999</ELEMENT_SET_NO><REV_AT_EPOCH>13375</REV_AT_EPOCH><BSTAR>-.10811E-2</BSTAR><MEAN_MOTION_DOT>-.376E-5</MEAN_MOTION_DOT><MEAN_MOTION_DDOT>0</MEAN_MOTION_DDOT></tleParameters></data></segment></body></omm>
<omm id="CCSDS_OMM_VERS" version="2.0">
<header><CREATION_DATE/><ORIGINATOR/></header><body><segment><metadata><OBJECT_NAME>ONEWEB-0122</OBJECT_NAME><OBJECT_ID>2020-100L</OBJECT_ID><CENTER_NAME>EARTH</CENTER_NAME><REF_FRAME>TEME</REF_FRAME><TIME_SYSTEM>UTC</TIME_SYSTEM><MEAN_ELEMENT_THEORY>SGP4</MEAN_ELEMENT_THEORY></metadata><data><meanElements><EPOCH>2023-09-23T08:16:03.728640</EPOCH><MEAN_MOTION>13.12444496</MEAN_MOTION><ECCENTRICITY>.0002009</ECCENTRICITY><INCLINATION>87.9071</INCLINATION><RA_OF_ASC_NODE>189.0444</RA_OF_ASC_NODE><ARG_OF_PERICENTER>68.4640</ARG_OF_PERICENTER><MEAN_ANOMALY>291.6702</MEAN_ANOMALY></meanElements><tleParameters><EPHEMERIS_TYPE>0</EPHEMERIS_TYPE><CLASSIFICATION_TYPE>U</CLASSIFICATION_TYPE><NORAD_CAT_ID>47268</NORAD_CAT_ID><ELEMENT_SET_NO>999</ELEMENT_SET_NO><REV_AT_EPOCH>13366</REV_AT_EPOCH><BSTAR>-.70142E-3</BSTAR><MEAN_MOTION_DOT>-.24E-5</MEAN_MOTION_DOT><MEAN_MOTION_DDOT>0</MEAN_MOTION_DDOT></tleParameters></data></segment></body></omm>
<omm id="CCSDS_OMM_VERS" version="2.0">
<header><CREATION_DATE/><ORIGINATOR/></header><body><segment><metadata><OBJECT_NAME>ONEWEB-0123</OBJECT_NAME><OBJECT_ID>2020-100M</OBJECT_ID><CENTER_NAME>EARTH</CENTER_NAME><REF_FRAME>TEME</REF_FRAME><TIME_SYSTEM>UTC</TIME_SYSTEM><MEAN_ELEMENT_THEORY>SGP4</MEAN_ELEMENT_THEORY></metadata><data><meanElements><EPOCH>2023-09-23T08:09:58.953888</EPOCH><MEAN_MOTION>13.12443067</MEAN_MOTION><ECCENTRICITY>.0001907</ECCENTRICITY><INCLINATION>87.9071</INCLINATION><RA_OF_ASC_NODE>189.0508</RA_OF_ASC_NODE><ARG_OF_PERICENTER>73.2510</ARG_OF_PERICENTER><MEAN_ANOMALY>286.8827</MEAN_ANOMALY></meanElements><tleParameters><EPHEMERIS_TYPE>0</EPHEMERIS_TYPE><CLASSIFICATION_TYPE>U</CLASSIFICATION_TYPE><NORAD_CAT_ID>47269</NORAD_CAT_ID><ELEMENT_SET_NO>999</ELEMENT_SET_NO><REV_AT_EPOCH>13380</REV_AT_EPOCH><BSTAR>-.36571E-3</BSTAR><MEAN_MOTION_DOT>-.119E-5</MEAN_MOTION_DOT><MEAN_MOTION_DDOT>0</MEAN_MOTION_DDOT></tleParameters></data></segment></body></omm>
<omm id="CCSDS_OMM_VERS" version="2.0">
<header><CREATION_DATE/><ORIGINATOR/></header><body><segment><metadata><OBJECT_NAME>ONEWEB-0124</OBJECT_NAME><OBJECT_ID>2020-100N</OBJECT_ID><CENTER_NAME>EARTH</CENTER_NAME><REF_FRAME>TEME</REF_FRAME><TIME_SYSTEM>UTC</TIME_SYSTEM><MEAN_ELEMENT_THEORY>SGP4</MEAN_ELEMENT_THEORY></metadata><data><meanElements><EPOCH>2023-09-23T07:51:40.982688</EPOCH><MEAN_MOTION>13.12443466</MEAN_MOTION><ECCENTRICITY>.0002231</ECCENTRICITY><INCLINATION>87.9071</INCLINATION><RA_OF_ASC_NODE>189.0496</RA_OF_ASC_NODE><ARG_OF_PERICENTER>78.2097</ARG_OF_PERICENTER><MEAN_ANOMALY>281.9282</MEAN_ANOMALY></meanElements><tleParameters><EPHEMERIS_TYPE>0</EPHEMERIS_TYPE><CLASSIFICATION_TYPE>U</CLASSIFICATION_TYPE><NORAD_CAT_ID>47270</NORAD_CAT_ID><ELEMENT_SET_NO>999</ELEMENT_SET_NO><REV_AT_EPOCH>13368</REV_AT_EPOCH><BSTAR>.10838E-2</BSTAR><MEAN_MOTION_DOT>.403E-5</MEAN_MOTION_DOT><MEAN_MOTION_DDOT>0</MEAN_MOTION_DDOT></tleParameters></data></segment></body></omm>
<omm id="CCSDS_OMM_VERS" version="2.0">
<header><CREATION_DATE/><ORIGINATOR/></header><body><segment><metadata><OBJECT_NAME>ONEWEB-0125</OBJECT_NAME><OBJECT_ID>2020-100P</OBJECT_ID><CENTER_NAME>EARTH</CENTER_NAME><REF_FRAME>TEME</REF_FRAME><TIME_SYSTEM>UTC</TIME_SYSTEM><MEAN_ELEMENT_THEORY>SGP4</MEAN_ELEMENT_THEORY></metadata><data><meanElements><EPOCH>2023-09-23T07:18:08.015616</EPOCH><MEAN_MOTION>13.12446144</MEAN_MOTION><ECCENTRICITY>.0001753</ECCENTRICITY><INCLINATION>87.9006</INCLINATION><RA_OF_ASC_NODE>189.0574</RA_OF_ASC_NODE><ARG_OF_PERICENTER>85.9010</ARG_OF_PERICENTER><MEAN_ANOMALY>274.2319</MEAN_ANOMALY></meanElements><tleParameters><EPHEMERIS_TYPE>0</EPHEMERIS_TYPE><CLASSIFICATION_TYPE>U</CLASSIFICATION_TYPE><NORAD_CAT_ID>47271</NORAD_CAT_ID><ELEMENT_SET_NO>999</ELEMENT_SET_NO><REV_AT_EPOCH>13374</REV_AT_EPOCH><BSTAR>.89266E-3</BSTAR><MEAN_MOTION_DOT>.334E-5</MEAN_MOTION_DOT><MEAN_MOTION_DDOT>0</MEAN_MOTION_DDOT></tleParameters></data></segment></body></omm>
<omm id="CCSDS_OMM_VERS" version="2.0">
<header><CREATION_DATE/><ORIGINATOR/></header><body><segment><metadata><OBJECT_NAME>ONEWEB-0126</OBJECT_NAME><OBJECT_ID>2020-100Q</OBJECT_ID><CENTER_NAME>EARTH</CENTER_NAME><REF_FRAME>TEME</REF_FRAME><TIME_SYSTEM>UTC</TIME_SYSTEM><MEAN_ELEMENT_THEORY>SGP4</MEAN_ELEMENT_THEORY></metadata><data><meanElements><EPOCH>2023-09-23T07:56:16.103616</EPOCH><MEAN_MOTION>13.12442003</MEAN_MOTION><ECCENTRICITY>.0001914</ECCENTRICITY><INCLINATION>87.8998</INCLINATION><RA_OF_ASC_NODE>189.0425</RA_OF_ASC_NODE><ARG_OF_PERICENTER>69.6187</ARG_OF_PERICENTER><MEAN_ANOMALY>290.5147</MEAN_ANOMALY></meanElements><tleParameters><EPHEMERIS_TYPE>0</EPHEMERIS_TYPE><CLASSIFICATION_TYPE>U</CLASSIFICATION_TYPE><NORAD_CAT_ID>47272</NORAD_CAT_ID><ELEMENT_SET_NO>999</ELEMENT_SET_NO><REV_AT_EPOCH>13381</REV_AT_EPOCH><BSTAR>.83031E-3</BSTAR><MEAN_MOTION_DOT>.311E-5</MEAN_MOTION_DOT><MEAN_MOTION_DDOT>0</MEAN_MOTION_DDOT></tleParameters></data></segment></body></omm>
<omm id="CCSDS_OMM_VERS" version="2.0">
<header><CREATION_DATE/><ORIGINATOR/></header><body><segment><metadata><OBJECT_NAME>ONEWEB-0127</OBJECT_NAME><OBJECT_ID>2020-100R</OBJECT_ID><CENTER_NAME>EARTH</CENTER_NAME><REF_FRAME>TEME</REF_FRAME><TIME_SYSTEM>UTC</TIME_SYSTEM><MEAN_ELEMENT_THEORY>SGP4</MEAN_ELEMENT_THEORY></metadata><data><meanElements><EPOCH>2023-09-23T07:02:53.869920</EPOCH><MEAN_MOTION>13.12444464</MEAN_MOTION><ECCENTRICITY>.0001886</ECCENTRICITY><INCLINATION>87.9071</INCLINATION><RA_OF_ASC_NODE>189.0491</RA_OF_ASC_NODE><ARG_OF_PERICENTER>71.6923</ARG_OF_PERICENTER><MEAN_ANOMALY>288.4411</MEAN_ANOMALY></meanElements><tleParameters><EPHEMERIS_TYPE>0</EPHEMERIS_TYPE><CLASSIFICATION_TYPE>U</CLASSIFICATION_TYPE><NORAD_CAT_ID>47273</NORAD_CAT_ID><ELEMENT_SET_NO>999</ELEMENT_SET_NO><REV_AT_EPOCH>13383</REV_AT_EPOCH><BSTAR>-.15854E-3</BSTAR><MEAN_MOTION_DOT>-.44E-6</MEAN_MOTION_DOT><MEAN_MOTION_DDOT>0</MEAN_MOTION_DDOT></tleParameters></data></segment></body></omm>

</ndm>
